0 PSLV DEB
1 27132U 01049CC  13281.97406314  .00003900  00000-0  33496-3 0  7682
2 27132 097.5318 256.0654 0056254 080.1630 315.9670 14.96784985651473
0 PSLV DEB
1 27132U 01049CC  13283.19337836  .00004050  00000-0  34761-3 0  7694
2 27132 097.5317 257.2397 0056200 076.1055 046.1293 14.96791786651657
0 PSLV DEB
1 27132U 01049CC  13284.19731939  .00004384  00000-0  37585-3 0  7706
2 27132 097.5313 258.2067 0056060 072.8209 055.7380 14.96796683651807
0 PSLV DEB
1 27132U 01049CC  13286.85895728  .00004334  00000-0  37157-3 0  7720
2 27132 097.5306 260.7706 0055795 064.1241 357.7284 14.96813978652201
0 PSLV DEB
1 27132U 01049CC  13288.19681866  .00007312  00000-0  62313-3 0  7737
2 27132 097.5306 262.0592 0055652 059.8025 006.6928 14.96827518652404
0 PSLV DEB
1 27132U 01049CC  13289.41572809  .00005828  00000-0  49761-3 0  7742
2 27132 097.5310 263.2331 0055577 055.8677 094.7474 14.96840229652585
0 PSLV DEB
1 27132U 01049CC  13290.41872687  .00006151  00000-0  52482-3 0  7756
2 27132 097.5313 264.1991 0055580 052.6728 099.3713 14.96849448652732
0 PSLV DEB
1 27132U 01049CC  13291.42141054  .00005608  00000-0  47882-3 0  7760
2 27132 097.5318 265.1647 0055510 049.4420 102.3737 14.96860058652889
0 PSLV DEB
1 27132U 01049CC  13292.48459152  .00005517  00000-0  47103-3 0  7774
2 27132 097.5323 266.1886 0055466 046.0298 071.3935 14.96871034653047
0 PSLV DEB
1 27132U 01049CC  13293.48936272  .00006077  00000-0  51827-3 0  7789
2 27132 097.5327 267.1563 0055420 042.8001 085.7107 14.96880578653199
0 PSLV DEB
1 27132U 01049CC  13294.67772763  .00007448  00000-0  63373-3 0  7797
2 27132 097.5332 268.3011 0055385 038.9957 009.3778 14.96891076653373
0 PSLV DEB
1 27132U 01049CC  13295.88254199  .00007428  00000-0  63192-3 0  7808
2 27132 097.5337 269.4619 0055329 035.0908 021.7811 14.96905502653552
